41925,IRIDIUM 112,2017,100.4,860.0,+,86.4,Active,1,LEO,USA,USA,Commercial/Government,Communications,Falcon,1 41925U 17003J   25008.33473685  .00000414  00000+0  14067-3 0  9995,2 41925  86.3979 307.6251 0002185  78.1866 281.9575 14.34212673418071,14.34212673,0.0002185,LEO
41926,IRIDIUM 111,2017,100.4,860.0,+,86.4,Active,1,LEO,USA,USA,Commercial/Government,Communications,Falcon,1 41926U 17003K   25007.83368705  .00000709  00000+0  24623-3 0  9992,2 41926  86.3979 307.8937 0002007  86.7039 273.4386 14.34215427417957,14.34215427,0.0002007,LEO
42803,IRIDIUM 113,2017,100.4,860.0,+,86.4,Active,1,LEO,USA,USA,Commercial/Government,Communications,Falcon,1 42803U 17039A   25007.74387871  .00000065  00000+0  16184-4 0  9990,2 42803  86.3998 181.7460 0001860  78.1985 281.9419 14.34216881395876,14.34216881,0.000186,LEO
42804,IRIDIUM 123,2017,100.4,860.0,+,86.4,Active,1,LEO,USA,USA,Commercial/Government,Communications,Falcon,1 42804U 17039B   25007.85512887  .00000191  00000+0  60995-4 0  9999,2 42804  86.3971 213.1348 0001839  94.1321 266.0085 14.34216787394654,14.34216787,0.0001839,LEO
42805,IRIDIUM 120,2017,100.4,860.0,+,86.4,Active,1,LEO,USA,USA,Commercial/Government,Communications,Falcon,1 42805U 17039C   25007.73753652 -.00000085  00000+0 -37534-4 0  9991,2 42805  86.3995 181.5997 0001943 101.8198 258.3216 14.34216948395866,14.34216948,0.0001943,LEO
42806,IRIDIUM 115,2017,99.77,860.0,+,86.45,Active,1,LEO,USA,USA,Commercial/Government,Communications,Falcon,1 42806U 17039D   25008.49211581  .00000328  00000+0  91438-4 0  9997,2 42806  86.4527 181.3396 0001554 100.3693 259.7683 14.43279490398588,14.4327949,0.0001554,LEO
42807,IRIDIUM 118,2017,100.4,860.0,+,86.4,Active,1,LEO,USA,USA,Commercial/Government,Communications,Falcon,1 42807U 17039E   25008.51475899  .00000020  00000+0  14561-6 0  9998,2 42807  86.3974 212.8596 0001887  87.4047 272.7365 14.34216084394750,14.34216084,0.0001887,LEO
42808,IRIDIUM 117,2017,100.4,860.0,+,86.4,Active,1,LEO,USA,USA,Commercial/Government,Communications,Falcon,1 42808U 17039F   25007.83609152  .00000220  00000+0  71489-4 0  9996,2 42808  86.3968 213.1058 0001716  94.9853 265.1539 14.34220002394675,14.34220002,0.0001716,LEO
